NORAD_CAT_ID,OBJECT_NAME,OBJECT_TYPE,EPOCH,MEAN_MOTION,ECCENTRICITY,INCLINATION,RA_OF_ASC_NODE,ARG_OF_PERICENTER,MEAN_ANOMALY,BSTAR,MEAN_MOTION_DOT,MEAN_MOTION_DDOT,TLE_LINE0,TLE_LINE1,TLE_LINE2,SEMIMAJOR_AXIS,PERIOD,APOGEE,PERIGEE,DECAYED
52688.0,STARLINK-4032,PAYLOAD,2023-09-16 16:24:12,15.08845365,0.0001539,53.215,246.7307,89.3444,270.7724,0.00027377,4.072e-05,0.0,0 STARLINK-4032,1 52688U 22053AJ  23259.68347239  .00004072  00000-0  27377-3 0  9996,2 52688  53.2150 246.7307 0001539  89.3444 270.7724 15.08845365 74124,6917.864,95.437,540.794,538.664,0.0
52688.0,STARLINK-4032,PAYLOAD,2023-09-17 06:42:40,15.08842775,0.0001582,53.215,244.0542,88.6174,271.5,0.00014442,2.011e-05,0.0,0 STARLINK-4032,1 52688U 22053AJ  23260.27963488  .00002011  00000-0  14442-3 0  9993,2 52688  53.2150 244.0542 0001582  88.6174 271.5000 15.08842775 74214,6917.872,95.437,540.831,538.642,0.0
52688.0,STARLINK-4032,PAYLOAD,2023-09-17 11:28:49,15.08849133,0.0001591,53.2154,243.1621,88.3252,271.7922,0.00022866,3.354e-05,0.0,0 STARLINK-4032,1 52688U 22053AJ  23260.47835284  .00003354  00000-0  22866-3 0  9997,2 52688  53.2154 243.1621 0001591  88.3252 271.7922 15.08849133 74614,6917.852,95.437,540.818,538.617,0.0
52688.0,STARLINK-4032,PAYLOAD,2023-09-18 08:08:50,15.08846497,0.0001429,53.2151,239.2957,98.6774,261.438,0.00015364,2.158e-05,0.0,0 STARLINK-4032,1 52688U 22053AJ  23261.33947441  .00002158  00000-0  15364-3 0  9998,2 52688  53.2151 239.2957 0001429  98.6774 261.4380 15.08846497 74379,6917.861,95.437,540.714,538.737,0.0
52688.0,STARLINK-4032,PAYLOAD,2023-09-18 16:05:46,15.08848065,0.0001415,53.2155,237.8099,94.3488,265.7666,0.00017211,2.453e-05,0.0,0 STARLINK-4032,1 52688U 22053AJ  23261.67067375  .00002453  00000-0  17211-3 0  9995,2 52688  53.2155 237.8099 0001415  94.3488 265.7666 15.08848065 74797,6917.856,95.437,540.7,538.742,0.0
52688.0,STARLINK-4032,PAYLOAD,2023-09-19 09:34:59,15.08868932,0.0001492,53.2158,234.5375,99.1265,260.9896,0.00072798,0.00011326,0.0,0 STARLINK-4032,1 52688U 22053AJ  23262.39930547  .00011326  00000-0  72798-3 0  9995,2 52688  53.2158 234.5375 0001492  99.1265 260.9896 15.08868932 74531,6917.792,95.436,540.689,538.625,0.0
52688.0,STARLINK-4032,PAYLOAD,2023-09-20 04:39:38,15.08841902,0.0001597,53.2163,230.969,103.6439,256.4731,9.8293e-05,1.277e-05,0.0,0 STARLINK-4032,1 52688U 22053AJ  23263.19419345  .00001277  00000-0  98293-4 0  9995,2 52688  53.2163 230.9690 0001597 103.6439 256.4731 15.08841902 74656,6917.875,95.437,540.844,538.635,0.0
52688.0,STARLINK-4032,PAYLOAD,2023-09-21 01:19:39,15.08830299,0.0001693,53.2169,227.1032,103.0818,257.0364,0.00015004,2.1e-05,0.0,0 STARLINK-4032,1 52688U 22053AJ  23264.05532238  .00002100  00000-0  15004-3 0  9992,2 52688  53.2169 227.1032 0001693 103.0818 257.0364 15.08830299 74782,6917.91,95.438,540.946,538.604,0.0
52688.0,STARLINK-4032,PAYLOAD,2023-09-21 07:41:12,15.0883446,0.000163,53.217,225.9136,105.7224,254.3948,0.00014898,2.083e-05,0.0,0 STARLINK-4032,1 52688U 22053AJ  23264.32028272  .00002083  00000-0  14898-3 0  9990,2 52688  53.2170 225.9136 0001630 105.7224 254.3948 15.08834460 75194,6917.897,95.438,540.89,538.635,0.0
52688.0,STARLINK-4032,PAYLOAD,2023-09-22 04:21:13,15.08845196,0.0001375,53.2161,222.0523,94.8058,265.3092,0.00033582,5.061e-05,0.0,0 STARLINK-4032,1 52688U 22053AJ  23265.18140306  .00005061  00000-0  33582-3 0  9998,2 52688  53.2161 222.0523 0001375  94.8058 265.3092 15.08845196 74954,6917.865,95.437,540.681,538.778,0.0
52688.0,STARLINK-4032,PAYLOAD,2023-09-22 21:50:27,15.08844333,0.0001257,53.2158,218.7809,91.9037,268.2099,0.00017849,2.554e-05,0.0,0 STARLINK-4032,1 52688U 22053AJ  23265.91004298  .00002554  00000-0  17849-3 0  9990,2 52688  53.2158 218.7809 0001257  91.9037 268.2099 15.08844333 75438,6917.867,95.437,540.602,538.863,0.0
52688.0,STARLINK-4032,PAYLOAD,2023-09-23 07:22:46,15.0885356,0.0001443,53.2164,216.9985,100.0561,260.0594,0.00028869,4.311e-05,0.0,0 STARLINK-4032,1 52688U 22053AJ  23266.30747701  .00004311  00000-0  28869-3 0  9994,2 52688  53.2164 216.9985 0001443 100.0561 260.0594 15.08853560 75129,6917.839,95.437,540.702,538.706,0.0
52688.0,STARLINK-4032,PAYLOAD,2023-09-24 04:02:47,15.08843028,0.0001323,53.2156,213.1297,93.94,266.1743,2.6541e-05,1.35e-06,0.0,0 STARLINK-4032,1 52688U 22053AJ  23267.16859996  .00000135  00000-0  26541-4 0  9995,2 52688  53.2156 213.1297 0001323  93.9400 266.1743 15.08843028 75259,6917.871,95.437,540.651,538.821,0.0
52688.0,STARLINK-4032,PAYLOAD,2023-09-24 07:13:33,15.0884406,0.0001305,53.2144,212.5356,93.4968,266.6173,8.1877e-05,1.016e-05,0.0,0 STARLINK-4032,1 52688U 22053AJ  23267.30108027  .00001016  00000-0  81877-4 0  9995,2 52688  53.2144 212.5356 0001305  93.4968 266.6173 15.08844060 75641,6917.868,95.437,540.636,538.83,0.0
52688.0,STARLINK-4032,PAYLOAD,2023-09-25 13:25:52,15.08854134,0.0001504,53.2155,206.884,97.6418,262.4745,0.00062445,9.668e-05,0.0,0 STARLINK-4032,1 52688U 22053AJ  23268.55963976  .00009668  00000-0  62445-3 0  9995,2 52688  53.2155 206.8840 0001504  97.6418 262.4745 15.08854134 75837,6917.837,95.437,540.743,538.662,0.0
52688.0,STARLINK-4032,PAYLOAD,2023-09-26 02:08:57,15.0886754,0.0001477,53.2144,204.506,93.0036,267.1125,0.00078524,0.00012241,0.0,0 STARLINK-4032,1 52688U 22053AJ  23269.08955195  .00012241  00000-0  78524-3 0  9994,2 52688  53.2144 204.5060 0001477  93.0036 267.1125 15.08867540 75917,6917.796,95.436,540.683,538.639,0.0
52688.0,STARLINK-4032,PAYLOAD,2023-09-27 01:59:44,15.08835835,0.0001482,53.2158,200.0472,110.421,249.6941,-0.00012317,-2.247e-05,0.0,0 STARLINK-4032,1 52688U 22053AJ  23270.08315900 -.00002247  00000-0 -12317-3 0  9995,2 52688  53.2158 200.0472 0001482 110.4210 249.6941 15.08835835 75692,6917.893,95.438,540.783,538.733,0.0
52688.0,STARLINK-4032,PAYLOAD,2023-09-27 05:10:31,15.08838753,0.0001415,53.2158,199.4504,104.7945,255.3204,-4.1204e-05,-9.44e-06,0.0,0 STARLINK-4032,1 52688U 22053AJ  23270.21563957 -.00000944  00000-0 -41204-4 0  9997,2 52688  53.2158 199.4504 0001415 104.7945 255.3204 15.08838753 76088,6917.884,95.438,540.728,538.77,0.0
52688.0,STARLINK-4032,PAYLOAD,2023-09-28 01:50:32,15.08831992,0.0001512,53.2164,195.5799,110.5681,249.5473,-0.00019051,-3.318e-05,0.0,0 STARLINK-4032,1 52688U 22053AJ  23271.07677018 -.00003318  00000-0 -19051-3 0  9998,2 52688  53.2164 195.5799 0001512 110.5681 249.5473 15.08831992 75842,6917.905,95.438,540.816,538.724,0.0
52688.0,STARLINK-4032,PAYLOAD,2023-09-28 22:30:33,15.08841572,0.0001344,53.2166,191.7189,98.889,261.2254,0.00034548,5.215e-05,0.0,0 STARLINK-4032,1 52688U 22053AJ  23271.93789173  .00005215  00000-0  34548-3 0  9993,2 52688  53.2166 191.7189 0001344  98.8890 261.2254 15.08841572 76347,6917.876,95.437,540.67,538.811,0.0
52688.0,STARLINK-4032,PAYLOAD,2023-09-29 00:05:56,15.08845672,0.000138,53.2168,191.4231,100.0793,260.0355,0.00041466,6.319e-05,0.0,0 STARLINK-4032,1 52688U 22053AJ  23272.00413057  .00006319  00000-0  41466-3 0  9990,2 52688  53.2168 191.4231 0001380 100.0793 260.0355 15.08845672 75985,6917.863,95.437,540.683,538.773,0.0
52688.0,STARLINK-4032,PAYLOAD,2023-09-29 23:56:43,15.08850388,0.0001635,53.2176,186.9682,116.6999,243.4161,0.00019569,2.829e-05,0.0,0 STARLINK-4032,1 52688U 22053AJ  23272.99772683  .00002829  00000-0  19569-3 0  9992,2 52688  53.2176 186.9682 0001635 116.6999 243.4161 15.08850388 76135,6917.849,95.437,540.845,538.583,0.0
52688.0,STARLINK-4032,PAYLOAD,2023-09-30 11:04:25,15.08840919,0.0001319,53.2159,184.879,79.8205,280.2936,3.2469e-05,2.29e-06,0.0,0 STARLINK-4032,1 52688U 22053AJ  23273.46141025  .00000229  00000-0  32469-4 0  9992,2 52688  53.2159 184.8790 0001319  79.8205 280.2936 15.08840919 76208,6917.878,95.437,540.655,538.83,0.0
52688.0,STARLINK-4032,PAYLOAD,2023-10-01 02:58:17,15.08844511,0.0001416,53.2158,181.9062,103.5249,256.5901,-6.0428e-06,-3.84e-06,0.0,0 STARLINK-4032,1 52688U 22053AJ  23274.12380940 -.00000384  00000-0 -60428-5 0  9998,2 52688  53.2158 181.9062 0001416 103.5249 256.5901 15.08844511 76679,6917.867,95.437,540.711,538.752,0.0
52688.0,STARLINK-4032,PAYLOAD,2023-10-01 22:02:54,15.08843338,0.0001297,53.2152,178.338,122.7823,237.3294,2.381e-05,9.1e-07,0.0,0 STARLINK-4032,1 52688U 22053AJ  23274.91868857  .00000091  00000-0  23810-4 0  9999,2 52688  53.2152 178.3380 0001297 122.7823 237.3294 15.08843338 76795,6917.87,95.437,540.632,538.838,0.0
52688.0,STARLINK-4032,PAYLOAD,2023-10-02 02:49:03,15.08852808,0.0001371,53.2161,177.4434,106.3945,253.7198,0.00017907,2.564e-05,0.0,0 STARLINK-4032,1 52688U 22053AJ  23275.11740477  .00002564  00000-0  17907-3 0  9995,2 52688  53.2161 177.4434 0001371 106.3945 253.7198 15.08852808 76451,6917.841,95.437,540.655,538.758,0.0
52688.0,STARLINK-4032,PAYLOAD,2023-10-02 10:46:00,15.08841152,0.0001345,53.2158,175.9604,87.0034,273.1112,0.00014984,2.098e-05,0.0,0 STARLINK-4032,1 52688U 22053AJ  23275.44861294  .00002098  00000-0  14984-3 0  9996,2 52688  53.2158 175.9604 0001345  87.0034 273.1112 15.08841152 76502,6917.877,95.437,540.672,538.811,0.0
52688.0,STARLINK-4032,PAYLOAD,2023-10-03 02:39:51,15.08844675,0.0001429,53.216,172.9853,87.7586,272.357,0.00015445,2.171e-05,0.0,0 STARLINK-4032,1 52688U 22053AJ  23276.11101228  .00002171  00000-0  15445-3 0  9990,2 52688  53.2160 172.9853 0001429  87.7586 272.3570 15.08844675 76973,6917.866,95.437,540.72,538.743,0.0
52688.0,STARLINK-4032,PAYLOAD,2023-10-03 21:44:29,15.08840759,0.0001562,53.2165,169.4155,83.2868,276.8302,-3.4874e-05,-8.43e-06,0.0,0 STARLINK-4032,1 52688U 22053AJ  23276.90589545 -.00000843  00000-0 -34874-4 0  9993,2 52688  53.2165 169.4155 0001562  83.2868 276.8302 15.08840759 77091,6917.878,95.438,540.824,538.662,0.0
52688.0,STARLINK-4032,PAYLOAD,2023-10-04 02:30:38,15.08844339,0.0001494,53.216,168.524,87.6466,272.4697,3.7189e-05,3.04e-06,0.0,0 STARLINK-4032,1 52688U 22053AJ  23277.10461355  .00000304  00000-0  37189-4 0  9996,2 52688  53.2160 168.5240 0001494  87.6466 272.4697 15.08844339 76756,6917.867,95.437,540.766,538.699,0.0
